#aV2012 10  3  0  0  0.00000000     288 DD+AD WGS84 FIT  NGA
## 1708 259200.00000000   300.00000000 56203 0.0000000000000
+   31     1  2  3  4  5  6  7  8  9 10 11 12 13 14 15 16 17
+         18 19 20 21 22 23 25 26 27 28 29 30 31 32  0  0  0
+          0  0  0  0  0  0  0  0  0  0  0  0  0  0  0  0  0
+          0  0  0  0  0  0  0  0  0  0  0  0  0  0  0  0  0
+          0  0  0  0  0  0  0  0  0  0  0  0  0  0  0  0  0
++         2  2  2  2  2  2  2  2  2  2  2  2  2  2  2  2  2
++         2  2  2  2  2  2  2  2  2  2  2  2  2  2  2  0  0
++         0  0  0  0  0  0  0  0  0  0  0  0  0  0  0  0  0
++         0  0  0  0  0  0  0  0  0  0  0  0  0  0  0  0  0
++         0  0  0  0  0  0  0  0  0  0  0  0  0  0  0  0  0
%c cc cc ccc ccc cccc cccc cccc cccc ccccc ccccc ccccc ccccc
%c cc cc ccc ccc cccc cccc cccc cccc ccccc ccccc ccccc ccccc
%f  0.0000000  0.000000000  0.00000000000  0.000000000000000
%f  0.0000000  0.000000000  0.00000000000  0.000000000000000
%i    0    0    0    0      0      0      0      0         0
%i    0    0    0    0      0      0      0      0         0
/*      NGA, ST. LOUIS,MO.                                  
/*   EPHEMERIS COMPUTED FROM  1 DAYS OF DATA
/*   EPOCHA SMOOTHER  
/* CCCCCCCCCCCCCCCCCCCCCCCCCCCCCCCCCCCCCCCCCCCCCCCCCCCCCCCCC
*  2012 10  3 17 15  0.00000000                                                 
P  1  14808.502152  -3499.842949  21751.319369    276.225751                    
V  1   5957.642022  27013.761478    344.026101      0.016136                    
P  2 -13972.095401 -18941.077880 -12637.675338    404.829363                    
V  2  -1260.482302 -16288.397889  24997.292882      0.011455                    
P  3  23455.515188  10207.245348  -8105.548203    109.787797                    
V  3 -10007.185755   1456.631464 -28657.491326      0.050596                    
P  4  -6102.789104 -25673.714369   -663.724057      5.402245                    
V  4   3602.255057  -1337.189848  31424.678090      0.112719                    
P  5 -15045.542638  -6530.857849 -20937.345040   -356.767245                    
V  5  19133.359354 -18414.356927  -7876.915042     -0.028641                    
P  6  19971.313517  13621.512163 -11258.116083    493.711754                    
V  6 -14620.543130   -871.250474 -26427.344689     -0.091634                    
P  7   8279.620801 -18242.562073 -17257.127682    129.119850                    
V  7   5882.986182  21315.870149 -19948.200101      0.044103                    
P  8   1312.285503 -25408.055914  -6350.341235      2.267450                    
V  8   2937.877449   8012.089569 -31595.126833      0.001618                    
P  9 -14944.079383  -1976.869115  21312.620801    189.836777                    
V  9  -5708.942655 -27740.461214  -6473.448995      0.025950                    
P 10   1164.717747 -18940.307732 -18684.077607    -53.946664                    
V 10  18805.260982 -14004.849981  15996.529572     -0.013927                    
P 11  18455.093309   2315.303942  18638.515611   -309.070580                    
V 11   9997.475897  22740.066055 -12143.679382     -0.040056                    
P 12 -22174.501613   9407.421638  10955.757714     94.224207                    
V 12   9277.040542 -10646.652265  28053.401941      0.020289                    
P 13  14595.273275  -8642.171247 -20601.427817    176.899206                    
V 13  23399.250874  10805.613787  12013.213757     -0.026131                    
P 14   3371.354875  16458.743543  20803.581713    214.052546                    
V 14 -24312.169766  -8918.690303  10954.119764      0.008285                    
P 15 -25888.636800  -3531.349545   5396.462379    -96.551400                    
V 15  -5689.158715  -4874.736789 -30223.307126     -0.007710                    
P 16  14472.446817   6522.767104 -21357.357006   -247.251056                    
V 16 -20509.486045  17530.276968  -8242.102709     -0.007217                    
P 17  -3849.662688 -16623.205953  20598.786722     91.124353                    
V 17  24407.626374   7997.321991  10876.509918     -0.033583                    
P 18 -15134.556165  20571.775601   6963.364746    217.936384                    
V 18  -8881.316116   2806.199860 -29543.574893      0.018322                    
P 19  25317.589095   7796.439989   3837.276286   -309.558279                    
V 19   3563.308344   4168.245978 -30999.408403     -0.034957                    
P 20  21671.529917 -12445.399803   8726.566427     69.623511                    
V 20  -5531.753596  10558.421381  28345.281039      0.009247                    
P 21  -6335.358004  20908.083278 -14198.138798   -253.594036                    
V 21  -7213.454845 -18107.454079 -23195.731383     -0.023825                    
P 22  -3227.776664  20129.047294  17147.919483    148.782703                    
V 22 -17657.681644  12615.666313 -18463.634372      0.003867                    
P 23  23636.844521  -1243.890563 -12372.909729    158.138428                    
V 23  14175.960038   6995.037738  25873.286113     -0.039022                    
P 25 -19178.901834  18314.065860   -640.013881     45.072801                    
V 25  -2307.940253  -1371.992204  31992.241680      0.014585                    
P 26 -22294.017625 -13763.014252  -6009.377384   -259.171313                    
V 26   6870.148794   1048.138134 -30788.341416      0.133423                    
P 27 -16036.719567  -6480.759204  20904.053095    438.085438                    
V 27  -5737.987572 -24330.125024 -11773.845081      0.040439                    
P 28   7324.018089 -20040.047594  16237.529476    191.468790                    
V 28  16129.284349 -11287.342322 -22181.333735      0.037248                    
P 29 -17218.851712   7466.945247 -18727.327757    362.142593                    
V 29 -21894.235416  -9666.534898  16272.425984      0.040487                    
P 30   6078.437164  15338.692317 -21179.497352   -382.348801                    
V 30 -17953.890979  18900.459349   8663.119768      0.191477                    
P 31   7090.198540  25232.211113  -3187.018764    278.391038                    
V 31  -1509.003463   4677.025367  32023.087901      0.024410                    
P 32  21199.370263  -2004.945525  15739.190898   -494.449618                    
V 32 -14362.843421  13954.176829  21869.757861     -0.039268                    
EOF
